QZS-4 (MICHIBIKI-4)     
1 42965U 17062A   19221.31129720 -.00000346  00000-0  00000+0 0  9995
2 42965  40.7680  15.7414 0744886 268.9183 283.0955  1.00291095  6701
SES-11 (ECHOSTAR 105)   
1 42967U 17063A   19221.43799322 -.00000108  00000-0  00000+0 0  9998
2 42967   0.0108 135.5747 0002333  13.2003 221.5821  1.00270618  6700
KOREASAT 5A             
1 42984U 17067A   19220.84668801 -.00000377  00000-0  00000-0 0  9991
2 42984   0.0107 124.3510 0001890   1.8007 248.8300  1.00273453  6429
ALCOMSAT 1              
1 43039U 17078A   19221.44292810 -.00000204  00000-0  00000+0 0  9993
2 43039   0.0184 248.5599 0003219 247.8780 315.8571  1.00272737  6181
SBIRS GEO-4 (USA 282)   
1 43162U 18009A   19220.71777031 -.00000304  00000-0  00000-0 0  9999
2 43162   5.5443 318.0606 0002591 171.9604 224.2818  1.00271373  5734
AL YAH 3                
1 43174U 18012A   19220.77902700 -.00000174  00000-0  00000-0 0  9990
2 43174   0.0145  94.0049 0002269  45.9695  77.3553  1.00269265  5741
SES-14                  
1 43175U 18012B   19221.06071160 -.00000297  00000-0  00000+0 0  9996
2 43175   0.0147  74.6065 0001166  58.0632 158.9236  1.00269435  5964
GOES 17                 
1 43226U 18022A   19221.52330146  .00000079  00000-0  00000+0 0  9994
2 43226   0.0172  88.0034 0000686  28.6052 252.2821  1.00273217  5331
HISPASAT 30W-6          
1 43228U 18023A   19221.42313361 -.00000235  00000-0  00000+0 0  9991
2 43228   0.0367  59.0588 0005107  48.1586 332.7065  1.00271009  5390
SUPERBIRD 8             
1 43271U 18033A   19220.81540436 -.00000111  00000-0  00000-0 0  9991
2 43271   0.0497 268.4757 0001486 239.6438 264.4246  1.00272519  4944
HYLAS 4                 
1 43272U 18033B   19220.84820505 -.00000252  00000-0  00000-0 0  9999
2 43272   0.0715 118.8972 0004444  43.6037  66.3605  1.00271322  4983
IRNSS-1I                
1 43286U 18035A   19220.79394434  .00000065  00000-0  00000+0 0  9997
2 43286  29.3439 114.7576 0018839 192.2832 350.8780  1.00270028  4951
COSMOS 2526             
1 43432U 18037A   19221.45471299 -.00000363  00000-0  00000+0 0  9993
2 43432   0.0193 119.3872 0000989 353.3494 136.6782  1.00272248  4877
APSTAR 6C               
1 43450U 18041A   19220.80982126 -.00000336  00000-0  00000-0 0  9993
2 43450   0.0446 258.4684 0001966 170.1374 313.9179  1.00275643  4717
BANGABANDHUSAT-1        
1 43463U 18044A   19221.02206615 -.00000381  00000-0  00000+0 0  9996
2 43463   0.0119 119.3359 0002159  16.9717 307.9432  1.00273259  4621
SES-12                  
1 43488U 18049A   19221.01735539 -.00000288  00000-0  00000+0 0  9995
2 43488   0.0206  68.9270 0001327 169.5738 179.9531  1.00272449  4324
FENGYUN 2H              
1 43491U 18050A   19220.91413749 -.00000145  00000-0  00000-0 0  9998
2 43491   1.3924 280.9356 0002970 240.1000 204.2820  1.00272720  4407
BEIDOU IGSO-7           
1 43539U 18057A   19221.55871976 -.00000112  00000-0  00000+0 0  9992
2 43539  55.0417 185.1210 0023505 202.0097 244.2576  1.00261463  4053
TELSTAR 19V             
1 43562U 18059A   19221.49502878 -.00000298  00000-0  00000+0 0  9990
2 43562   0.0111 136.2644 0002086  15.9043 280.7132  1.00273051  4061
TELKOM 4 (MERAH PUTIH)  
1 43587U 18064A   19221.01997247 -.00000362  00000-0  00000+0 0  9991
2 43587   0.0121  77.3286 0001642  61.1416 293.9263  1.00272506  3750
TELSTAR 18V (APSTAR 5C) 
1 43611U 18069A   19221.45663216 -.00000313  00000-0  00000+0 0  9994
2 43611   0.0132  82.1971 0001075  47.2408 130.5814  1.00268546  3501
AZERSPACE 2 (IS-38)     
1 43632U 18074A   19221.16791552  .00000118  00000-0  00000+0 0  9998
2 43632   0.0135  99.4255 0001567  33.4273 290.0673  1.00271029  3398
HORIZONS 3E             
1 43633U 18074B   19221.10389337 -.00000049  00000-0  00000+0 0  9991
2 43633   0.0068 352.7000 0000166 187.4217 343.5630  1.00271787  3241
AEHF-4 (USA 288)        
1 43651U 18079A   19220.11816468 -.00000173  00000-0  00000+0 0  9994
2 43651   4.4965 311.5203 0002520 147.0447 166.0772  1.00270153  3179
BEIDOU-3 G1             
1 43683U 18085A   19221.60254968 -.00000261  00000-0  00000+0 0  9990
2 43683   2.4645 267.4607 0000730 223.9522 187.8017  1.00273978  2960
GSAT-29                 
1 43698U 18089A   19220.79578247  .00000067  00000-0  00000+0 0  9991
2 43698   0.1233 272.2369 0002178 186.4025 199.8883  1.00272092  2704
ES'HAIL 2               
1 43700U 18090A   19220.78818677  .00000125  00000-0  00000-0 0  9996
2 43700   0.0126  97.4342 0001650  47.2166 121.8617  1.00272531  2562
GEO-KOMPSAT-2A          
1 43823U 18100A   19221.45471299 -.00000362  00000-0  00000+0 0  9997
2 43823   0.0052 119.8346 0002285 339.6872 150.0577  1.00276441  2558
GSAT-11                 
1 43824U 18100B   19220.79778271 -.00000096  00000-0  00000-0 0  9999
2 43824   0.1452 271.3013 0007550 199.5187 207.3863  1.00271635  2443
GSAT-7A                 
1 43864U 18105A   19221.44171484  .00000008  00000-0  00000+0 0  9995
2 43864   0.0636 274.1559 0002200 190.7023  74.5889  1.00272314  2363
COSMOS 2533             
1 43867U 18107A   19221.44311061 -.00000056  00000-0  00000+0 0  9991
2 43867   0.0255 120.7334 0000175  55.3321  11.0047  1.00270688  2326
TJS-3                   
1 43874U 18110A   19221.77461891 -.00000017  00000-0  00000+0 0  9993
2 43874   0.0519 126.8305 0004068  71.7151 211.2539  1.00269931  2385
TJS-3 AKM               
1 43917U 18110C   19221.81573640  .00000037  00000-0  00000+0 0  9993
2 43917   0.2216  99.9113 0003080  79.0617 131.7845  1.00275702  2241
CHINASAT 2D (ZX 2D)     
1 43920U 19001A   19220.90271326 -.00000356  00000-0  00000-0 0  9998
2 43920   0.0211 132.6591 0001103 349.5900 289.8513  1.00271572  2256
GSAT-31                 
1 44035U 19007B   19221.44154038 -.00000044  00000-0  00000+0 0  9995
2 44035   0.1120 276.4096 0000556 282.6650 339.5638  1.00554403  1865
NUSANTARA SATU          
1 44048U 19009A   19220.95576687 -.00000253  00000-0  00000+0 0  9996
2 44048   0.0143  85.8128 0002077  48.9792 312.4291  1.00271467  1660
WGS 10 (USA 291)        
1 44071U 19014A   19221.52974948 -.00000000  00000-0  00000+0 0  9994
2 44071   0.0279 104.7960 0000551  32.0648 249.6806  1.00273738  1510
ARABSAT-6A              
1 44186U 19021A   19221.29166913  .00000135  00000-0  00000+0 0  9996
2 44186   0.0126  79.2161 0001716 121.5035 252.2390  1.00276707  1118
BEIDOU-3 IGSO-1         
1 44204U 19023A   19219.97757860 -.00000219  00000-0  10000-3 0  9997
2 44204  55.0480  64.3998 0017421 176.6823 181.7126  1.00272426  1231
